{"features":[{"geometry":{"coordinates":[-95.9928,36.154],"type":"Point"},"properties":{"claim_ids":["01a0e6a5-43fe-7e91-8de1-e2bc7d2d8823","01a0e6a5-43fe-7f08-80a0-70ca10ab61a7","01a0e6a5-43fe-7f47-a7f6-94c5d1c56385","01a0e6a5-43fe-7ffa-9a09-02c4fb8eab13"],"entity_id":"01a0e6a5-43e4-7571-aefc-d547d140117a","entity_type":"deployment","jurisdiction":"us.ok.tulsa","label":"P33.2 ODbL Fixture Junction","n_observation_claims":4,"n_sources":1,"point_status":"resolved","precision":"full_precision","rights":{"attribution":"","attribution_required":true,"license":"ODbL-1.0","share_alike":true,"source_id":"composed-fixture@01a0e6a5-43c7-728a-b38f-d64f64f7457a","terms_url":"","upstream_license":null},"rights_id":"01a0e6a5-43c7-728a-b38f-d64f64f7457a","source_id":"composed-fixture","spdx":"ODbL-1.0","tier":0},"type":"Feature"}],"type":"FeatureCollection"}
